LEMUR-2-GREENBERG       
1 42837U 17042N   26068.46200528  .00019778  00000+0  72539-3 0  9997
2 42837  97.3781 249.8007 0009157   4.0119 356.1192 15.27971352473146
STARLINK-32699          
1 62482U 24254W   26068.15193859  .00038162  00000+0  13886-2 0  9999
2 62482  43.0016  22.6216 0001531 250.0738 109.9949 15.27591918 67385
